{"A-B":[{"code":"150085","name":"中小板A","parentId":1,"parentName":"深市上市基金","prevCode":"150084"},{"code":"150086","name":"中小板B","parentId":1,"parentName":"深市上市基金","prevCode":"150085"},{"code":"001809","name":"中信建投智信物联网","parentId":3,"parentName":"其他基金","prevCode":"001808"},{"code":"001869","name":"招商制造业混合","parentId":3,"parentName":"其他基金","prevCode":"001868"},{"code":"003308","name":"中信建投睿利","parentId":3,"parentName":"其他基金","prevCode":"003307"},{"code":"400013","name":"东方保本","parentId":3,"parentName":"其他基金","prevCode":"400011"}],"B-A":[{"code":"501103","name":"政债五八","parentId":2,"parentName":"沪市上市基金","prevCode":"501102","orgId":"jjjl0000097","pinyin":"zzwb"},{"code":"000548","name":"鹏华聚财通货币","parentId":3,"parentName":"其他基金","prevCode":"000547","orgId":"jjjl0000036","pinyin":"phjcthb"},{"code":"001809","name":"中信建投智信物联网A","parentId":3,"parentName":"其他基金","prevCode":"001808","orgId":"9900027036","pinyin":"zxjtzxwlwa"},{"code":"001869","name":"招商制造业混合A","parentId":3,"parentName":"其他基金","prevCode":"001868","orgId":"jjjl0000060","pinyin":"zszzyhha"},{"code":"003308","name":"中信建投睿利A","parentId":3,"parentName":"其他基金","prevCode":"003307","orgId":"9900027036","pinyin":"zxjtrla"},{"code":"003844","name":"建信睿源纯债债券","parentId":3,"parentName":"其他基金","prevCode":"003843","orgId":"jjjl0000097","pinyin":"jxryczzq"},{"code":"003869","name":"长信稳势纯债","parentId":3,"parentName":"其他基金","prevCode":"003868","orgId":"jjjl0000069","pinyin":"cxwscz"},{"code":"003928","name":"前海联合永兴纯债","parentId":3,"parentName":"其他基金","prevCode":"003927","orgId":"9900031678","pinyin":"qhlhyxcz"},{"code":"003932","name":"银华中证5年期地方政府债指数A","parentId":3,"parentName":"其他基金","prevCode":"003930","orgId":"jjjl0000042","pinyin":"yhzz5nqdfzfzzsa"},{"code":"003933","name":"银华中证5年期地方政府债指数C","parentId":3,"parentName":"其他基金","prevCode":"003932","orgId":"jjjl0000042","pinyin":"yhzz5nqdfzfzzsc"},{"code":"003934","name":"银华中证10年期地方政府债指数A","parentId":3,"parentName":"其他基金","prevCode":"003933","orgId":"jjjl0000042","pinyin":"yhzz10nqdfzfzzsa"},{"code":"003935","name":"银华中证10年期地方政府债指数C","parentId":3,"parentName":"其他基金","prevCode":"003934","orgId":"jjjl0000042","pinyin":"yhzz10nqdfzfzzsc"},{"code":"004340","name":"泰康兴泰回报沪港深混合","parentId":3,"parentName":"其他基金","prevCode":"004339","orgId":"9900025323","pinyin":"tkxthbhgshh"},{"code":"004528","name":"长盛盛通纯债A","parentId":3,"parentName":"其他基金","prevCode":"004522","orgId":"jjjl0000038","pinyin":"csstcza"},{"code":"004529","name":"长盛盛通纯债C","parentId":3,"parentName":"其他基金","prevCode":"004528","orgId":"jjjl0000038","pinyin":"csstczc"},{"code":"004550","name":"中科沃土沃祥债券","parentId":3,"parentName":"其他基金","prevCode":"004548","orgId":"9900031644","pinyin":"zkwtwxzq"},{"code":"004569","name":"招商制造业混合C","parentId":3,"parentName":"其他基金","prevCode":"004568","orgId":"jjjl0000060","pinyin":"zszzyhhc"},{"code":"004624","name":"博时盈海纯债债券","parentId":3,"parentName":"其他基金","prevCode":"004611","orgId":"jjjl0000035","pinyin":"bsyhczzq"},{"code":"004633","name":"诺德天利","parentId":3,"parentName":"其他基金","prevCode":"004624","orgId":"9900003002","pinyin":"ndtl"},{"code":"004635","name":"中信建投睿利C","parentId":3,"parentName":"其他基金","prevCode":"004633","orgId":"9900027036","pinyin":"zxjtrlc"},{"code":"004636","name":"中信建投智信物联网C","parentId":3,"parentName":"其他基金","prevCode":"004635","orgId":"9900027036","pinyin":"zxjtzxwlwc"},{"code":"400013","name":"东方成长收益平衡混合","parentId":3,"parentName":"其他基金","prevCode":"400011","orgId":"jjjl0000079","pinyin":"dfczsyphhe"}]}