{"A-B":[{"code":"112520","name":"17金洲02","parentId":5,"parentName":"深市公司债","prevCode":"112519"},{"code":"122915","name":"PR镇水投","parentId":8,"parentName":"沪市企业债","prevCode":"122912"},{"code":"124508","name":"14滕州02","parentId":8,"parentName":"沪市企业债","prevCode":"124507"},{"code":"124604","name":"PR富阳02","parentId":8,"parentName":"沪市企业债","prevCode":"124603"},{"code":"124742","name":"14贵水02","parentId":8,"parentName":"沪市企业债","prevCode":"124741"},{"code":"124890","name":"14甘电投","parentId":8,"parentName":"沪市企业债","prevCode":"124889"}],"B-A":[{"code":"108177","name":"贴债1721","parentId":1,"parentName":"深市国债","prevCode":"108176","orgId":"9900000461","pinyin":"tz1721"},{"code":"107606","name":"龙江1701","parentId":2,"parentName":"深市地方债","prevCode":"107605","orgId":"9900006642","pinyin":"lj1701"},{"code":"107607","name":"龙江1702","parentId":2,"parentName":"深市地方债","prevCode":"107606","orgId":"9900006642","pinyin":"lj1702"},{"code":"107608","name":"龙江1703","parentId":2,"parentName":"深市地方债","prevCode":"107607","orgId":"9900006642","pinyin":"lj1703"},{"code":"107609","name":"龙江1704","parentId":2,"parentName":"深市地方债","prevCode":"107608","orgId":"9900006642","pinyin":"lj1704"},{"code":"107610","name":"龙江1705","parentId":2,"parentName":"深市地方债","prevCode":"107609","orgId":"9900006642","pinyin":"lj1705"},{"code":"107611","name":"龙江1706","parentId":2,"parentName":"深市地方债","prevCode":"107610","orgId":"9900006642","pinyin":"lj1706"},{"code":"107612","name":"新疆1705","parentId":2,"parentName":"深市地方债","prevCode":"107611","orgId":"9900006645","pinyin":"xj1705"},{"code":"107613","name":"新疆1706","parentId":2,"parentName":"深市地方债","prevCode":"107612","orgId":"9900006645","pinyin":"xj1706"},{"code":"107614","name":"新疆1707","parentId":2,"parentName":"深市地方债","prevCode":"107613","orgId":"9900006645","pinyin":"xj1707"},{"code":"107615","name":"新疆1708","parentId":2,"parentName":"深市地方债","prevCode":"107614","orgId":"9900006645","pinyin":"xj1708"},{"code":"107616","name":"北京1701","parentId":2,"parentName":"深市地方债","prevCode":"107615","orgId":"9900006727","pinyin":""},{"code":"107617","name":"北京1702","parentId":2,"parentName":"深市地方债","prevCode":"107616","orgId":"9900006727","pinyin":""},{"code":"107618","name":"河北1704","parentId":2,"parentName":"深市地方债","prevCode":"107617","orgId":"9900006547","pinyin":""},{"code":"107619","name":"河北1705","parentId":2,"parentName":"深市地方债","prevCode":"107618","orgId":"9900006547","pinyin":""},{"code":"107620","name":"河北1706","parentId":2,"parentName":"深市地方债","prevCode":"107619","orgId":"9900006547","pinyin":""},{"code":"107621","name":"河北1707","parentId":2,"parentName":"深市地方债","prevCode":"107620","orgId":"9900006547","pinyin":""},{"code":"112520","name":"17广发01","parentId":5,"parentName":"深市公司债","prevCode":"112519","orgId":"gssz0000776","pinyin":""},{"code":"B11014","name":"17金洲02","parentId":5,"parentName":"深市公司债","prevCode":"118590","orgId":"gssz0000587","pinyin":""},{"code":"020177","name":"17贴债21","parentId":6,"parentName":"沪市国债","prevCode":"020176","orgId":"9900000461","pinyin":"17tz21"},{"code":"140601","name":"17新疆05","parentId":7,"parentName":"沪市地方债","prevCode":"140600","orgId":"9900006645","pinyin":"17xj05"},{"code":"140602","name":"17新疆06","parentId":7,"parentName":"沪市地方债","prevCode":"140601","orgId":"9900006645","pinyin":"17xj06"},{"code":"140603","name":"17新疆07","parentId":7,"parentName":"沪市地方债","prevCode":"140602","orgId":"9900006645","pinyin":"17xj07"},{"code":"140604","name":"17新疆08","parentId":7,"parentName":"沪市地方债","prevCode":"140603","orgId":"9900006645","pinyin":"17xj08"},{"code":"140605","name":"17黑龙01","parentId":7,"parentName":"沪市地方债","prevCode":"140604","orgId":"9900006642","pinyin":"17hl01"},{"code":"140606","name":"17黑龙02","parentId":7,"parentName":"沪市地方债","prevCode":"140605","orgId":"9900006642","pinyin":"17hl02"},{"code":"140607","name":"17黑龙03","parentId":7,"parentName":"沪市地方债","prevCode":"140606","orgId":"9900006642","pinyin":"17hl03"},{"code":"140608","name":"17黑龙04","parentId":7,"parentName":"沪市地方债","prevCode":"140607","orgId":"9900006642","pinyin":"17hl04"},{"code":"140609","name":"17黑龙05","parentId":7,"parentName":"沪市地方债","prevCode":"140608","orgId":"9900006642","pinyin":"17hl05"},{"code":"140610","name":"17黑龙06","parentId":7,"parentName":"沪市地方债","prevCode":"140609","orgId":"9900006642","pinyin":"17hl06"},{"code":"124508","name":"PR滕州02","parentId":8,"parentName":"沪市企业债","prevCode":"124507","orgId":"9900020370","pinyin":"PRtz02"},{"code":"124742","name":"PR贵水02","parentId":8,"parentName":"沪市企业债","prevCode":"124741","orgId":"9900028240","pinyin":"PRgs02"},{"code":"124890","name":"14甘电停","parentId":8,"parentName":"沪市企业债","prevCode":"124889","orgId":"9900005800","pinyin":"14gdt"},{"code":"127478","name":"17新交投","parentId":8,"parentName":"沪市企业债","prevCode":"127475","orgId":"9900030222","pinyin":"17xjt"},{"code":"127480","name":"17陂城投","parentId":8,"parentName":"沪市企业债","prevCode":"127479","orgId":"9900029388","pinyin":"17bct"},{"code":"127486","name":"17威高新","parentId":8,"parentName":"沪市企业债","prevCode":"127481","orgId":"9900035186","pinyin":"17wgx"},{"code":"139359","name":"17襄投债","parentId":8,"parentName":"沪市企业债","prevCode":"139356","orgId":"9900022034","pinyin":"17xtz"},{"code":"139360","name":"17醴陵债","parentId":8,"parentName":"沪市企业债","prevCode":"139359","orgId":"9900035010","pinyin":"17lz"}]}