{"A-B":[{"code":"108147","name":"贴债1650","parentId":1,"parentName":"深市国债","prevCode":"101917"},{"code":"108163","name":"贴债1706","parentId":1,"parentName":"深市国债","prevCode":"108162"},{"code":"112084","name":"11万家债","parentId":5,"parentName":"深市公司债","prevCode":"112076"},{"code":"020148","name":"16贴债50","parentId":6,"parentName":"沪市国债","prevCode":"019930"},{"code":"020162","name":"17贴债06","parentId":6,"parentName":"沪市国债","prevCode":"020159"},{"code":"122915","name":"PR镇水投","parentId":8,"parentName":"沪市企业债","prevCode":"122912"},{"code":"124604","name":"PR富阳02","parentId":8,"parentName":"沪市企业债","prevCode":"124603"},{"code":"124738","name":"14安发投","parentId":8,"parentName":"沪市企业债","prevCode":"124737"},{"code":"124743","name":"14银城投","parentId":8,"parentName":"沪市企业债","prevCode":"124742"},{"code":"127073","name":"15铁西债","parentId":8,"parentName":"沪市企业债","prevCode":"127072"},{"code":"122133","name":"11柳化债","parentId":10,"parentName":"沪市公司债","prevCode":"122127"},{"code":"122156","name":"12厦工债","parentId":10,"parentName":"沪市公司债","prevCode":"122155"}],"B-A":[{"code":"107622","name":"陕西1701","parentId":2,"parentName":"深市地方债","prevCode":"107621","orgId":"9900006549","pinyin":""},{"code":"107623","name":"陕西1702","parentId":2,"parentName":"深市地方债","prevCode":"107622","orgId":"9900006549","pinyin":""},{"code":"107624","name":"陕西1703","parentId":2,"parentName":"深市地方债","prevCode":"107623","orgId":"9900006549","pinyin":""},{"code":"107625","name":"陕西1704","parentId":2,"parentName":"深市地方债","prevCode":"107624","orgId":"9900006549","pinyin":""},{"code":"124738","name":"PR安发投","parentId":8,"parentName":"沪市企业债","prevCode":"124737","orgId":"9900028671","pinyin":"PRaft"},{"code":"124743","name":"PR银城投","parentId":8,"parentName":"沪市企业债","prevCode":"124742","orgId":"9900011787","pinyin":"PRyct"},{"code":"127073","name":"15铁暂停","parentId":8,"parentName":"沪市企业债","prevCode":"127072","orgId":"9900030039","pinyin":"15tzt"},{"code":"127477","name":"17邳润债","parentId":8,"parentName":"沪市企业债","prevCode":"127475","orgId":"9900024339","pinyin":"17prz"},{"code":"127482","name":"G17产建1","parentId":8,"parentName":"沪市企业债","prevCode":"127481","orgId":"9900031936","pinyin":"g17cj1"},{"code":"139354","name":"17应城债","parentId":8,"parentName":"沪市企业债","prevCode":"139351","orgId":"9900034966","pinyin":"17ycz"},{"code":"139371","name":"17长葛债","parentId":8,"parentName":"沪市企业债","prevCode":"139360","orgId":"9900035000","pinyin":"17cgz"},{"code":"122133","name":"柳化暂停","parentId":10,"parentName":"沪市公司债","prevCode":"122127","orgId":"gssh0600423","pinyin":"lhzt"},{"code":"122156","name":"厦债暂停","parentId":10,"parentName":"沪市公司债","prevCode":"122155","orgId":"gssh0600815","pinyin":"xzzt"},{"code":"143114","name":"17电投01","parentId":10,"parentName":"沪市公司债","prevCode":"143112","orgId":"9900005022","pinyin":""},{"code":"143115","name":"17电投02","parentId":10,"parentName":"沪市公司债","prevCode":"143114","orgId":"9900005022","pinyin":""}]}